{
  "type": "FeatureCollection",
  "features": [
    {
      "type": "Feature",
      "properties": {
        "norad_id": 34350,
        "name": "IRIDIUM 33 DEB",
        "group": "iridium-33-debris",
        "lat": -38.2075150370014,
        "lon": -173.82732610290898,
        "alt_km": 744.3796469773542,
        "timestamp": "2025-12-11T15:53:39.928417+00:00",
        "meta_object_name": "IRIDIUM 33 DEB",
        "meta_object_id": "1997-051ES",
        "meta_epoch": "2025-12-11T01:50:46.546368",
        "meta_mean_motion": 14.45380646,
        "meta_eccentricity": 0.0022689,
        "meta_inclination": 86.3276,
        "meta_ra_of_asc_node": 3.5288,
        "meta_arg_of_pericenter": 140.3676,
        "meta_mean_anomaly": 273.777,
        "meta_ephemeris_type": 0,
        "meta_classification_type": "U",
        "meta_norad_cat_id": 34350,
        "meta_element_set_no": 999,
        "meta_rev_at_epoch": 88269,
        "meta_bstar": 0.00045529531,
        "meta_mean_motion_dot": 1.625e-05,
        "meta_mean_motion_ddot": 0,
        "tle_line1": "1 34350U 97051ES  25345.07692762  .00001625  00000+0  45530-3 0  9998",
        "tle_line2": "2 34350  86.3276   3.5288 0022689 140.3676 273.7770 14.45380646882696"
      },
      "geometry": {
        "type": "Point",
        "coordinates": [
          -173.82732610290898,
          -38.2075150370014
        ]
      }
    },
    {
      "type": "Feature",
      "properties": {
        "norad_id": 34366,
        "name": "IRIDIUM 33 DEB",
        "group": "iridium-33-debris",
        "lat": 27.47015054626096,
        "lon": -132.11001973485932,
        "alt_km": 695.8398972948798,
        "timestamp": "2025-12-11T15:53:39.928426+00:00",
        "meta_object_name": "IRIDIUM 33 DEB",
        "meta_object_id": "1997-051FJ",
        "meta_epoch": "2025-12-11T05:33:55.951776",
        "meta_mean_motion": 14.54036307,
        "meta_eccentricity": 0.00222951,
        "meta_inclination": 86.3694,
        "meta_ra_of_asc_node": 49.9688,
        "meta_arg_of_pericenter": 144.5199,
        "meta_mean_anomaly": 276.4662,
        "meta_ephemeris_type": 0,
        "meta_classification_type": "U",
        "meta_norad_cat_id": 34366,
        "meta_element_set_no": 999,
        "meta_rev_at_epoch": 88160,
        "meta_bstar": 0.0016787671,
        "meta_mean_motion_dot": 7.125e-05,
        "meta_mean_motion_ddot": 0,
        "tle_line1": "1 34366U 97051FJ  25345.23189759  .00007125  00000+0  16788-2 0  9993",
        "tle_line2": "2 34366  86.3694  49.9688 0022295 144.5199 276.4662 14.54036307881606"
      },
      "geometry": {
        "type": "Point",
        "coordinates": [
          -132.11001973485932,
          27.47015054626096
        ]
      }
    },
    {
      "type": "Feature",
      "properties": {
        "norad_id": 34375,
        "name": "IRIDIUM 33 DEB",
        "group": "iridium-33-debris",
        "lat": -28.360439743302255,
        "lon": 5.062475963288811,
        "alt_km": 822.1606597528862,
        "timestamp": "2025-12-11T15:53:39.928437+00:00",
        "meta_object_name": "IRIDIUM 33 DEB",
        "meta_object_id": "1997-051FT",
        "meta_epoch": "2025-12-11T00:23:27.996864",
        "meta_mean_motion": 14.17987093,
        "meta_eccentricity": 0.01031842,
        "meta_inclination": 86.4327,
        "meta_ra_of_asc_node": 183.3931,
        "meta_arg_of_pericenter": 132.1212,
        "meta_mean_anomaly": 19.5612,
        "meta_ephemeris_type": 0,
        "meta_classification_type": "U",
        "meta_norad_cat_id": 34375,
        "meta_element_set_no": 999,
        "meta_rev_at_epoch": 86687,
        "meta_bstar": 0.0005759811,
        "meta_mean_motion_dot": 1.262e-05,
        "meta_mean_motion_ddot": 0,
        "tle_line1": "1 34375U 97051FT  25345.01629626  .00001262  00000+0  57598-3 0  9992",
        "tle_line2": "2 34375  86.4327 183.3931 0103184 132.1212  19.5612 14.17987093866879"
      },
      "geometry": {
        "type": "Point",
        "coordinates": [
          5.062475963288811,
          -28.360439743302255
        ]
      }
    },
    {
      "type": "Feature",
      "properties": {
        "norad_id": 34376,
        "name": "IRIDIUM 33 DEB",
        "group": "iridium-33-debris",
        "lat": 46.4289906083512,
        "lon": 10.925550130147501,
        "alt_km": 691.5166543452433,
        "timestamp": "2025-12-11T15:53:39.928447+00:00",
        "meta_object_name": "IRIDIUM 33 DEB",
        "meta_object_id": "1997-051FU",
        "meta_epoch": "2025-12-11T05:49:44.575392",
        "meta_mean_motion": 14.62535541,
        "meta_eccentricity": 0.00270137,
        "meta_inclination": 86.299,
        "meta_ra_of_asc_node": 7.2126,
        "meta_arg_of_pericenter": 171.6428,
        "meta_mean_anomaly": 188.5239,
        "meta_ephemeris_type": 0,
        "meta_classification_type": "U",
        "meta_norad_cat_id": 34376,
        "meta_element_set_no": 999,
        "meta_rev_at_epoch": 87985,
        "meta_bstar": 0.0027609719,
        "meta_mean_motion_dot": 0.00014114,
        "meta_mean_motion_ddot": 0,
        "tle_line1": "1 34376U 97051FU  25345.24287703  .00014114  00000+0  27610-2 0  9995",
        "tle_line2": "2 34376  86.2990   7.2126 0027013 171.6428 188.5239 14.62535541879858"
      },
      "geometry": {
        "type": "Point",
        "coordinates": [
          10.925550130147501,
          46.4289906083512
        ]
      }
    },
    {
      "type": "Feature",
      "properties": {
        "norad_id": 34486,
        "name": "IRIDIUM 33 DEB",
        "group": "iridium-33-debris",
        "lat": 44.931064848456195,
        "lon": -171.08497634520546,
        "alt_km": 567.5048260927742,
        "timestamp": "2025-12-11T15:53:39.928458+00:00",
        "meta_object_name": "IRIDIUM 33 DEB",
        "meta_object_id": "1997-051GB",
        "meta_epoch": "2025-12-11T02:42:46.568736",
        "meta_mean_motion": 14.95675901,
        "meta_eccentricity": 0.00135337,
        "meta_inclination": 86.394,
        "meta_ra_of_asc_node": 12.7753,
        "meta_arg_of_pericenter": 118.272,
        "meta_mean_anomaly": 301.206,
        "meta_ephemeris_type": 0,
        "meta_classification_type": "U",
        "meta_norad_cat_id": 34486,
        "meta_element_set_no": 999,
        "meta_rev_at_epoch": 88962,
        "meta_bstar": 0.0032070049,
        "meta_mean_motion_dot": 0.00035889,
        "meta_mean_motion_ddot": 0,
        "tle_line1": "1 34486U 97051GB  25345.11303899  .00035889  00000+0  32070-2 0  9996",
        "tle_line2": "2 34486  86.3940  12.7753 0013533 118.2720 301.2060 14.95675901889620"
      },
      "geometry": {
        "type": "Point",
        "coordinates": [
          -171.08497634520546,
          44.931064848456195
        ]
      }
    },
    {
      "type": "Feature",
      "properties": {
        "norad_id": 34487,
        "name": "IRIDIUM 33 DEB",
        "group": "iridium-33-debris",
        "lat": -6.607743143924405,
        "lon": 12.416887671786911,
        "alt_km": 769.085505007015,
        "timestamp": "2025-12-11T15:53:39.928468+00:00",
        "meta_object_name": "IRIDIUM 33 DEB",
        "meta_object_id": "1997-051GC",
        "meta_epoch": "2025-12-11T01:04:57.503136",
        "meta_mean_motion": 14.43212791,
        "meta_eccentricity": 0.00326479,
        "meta_inclination": 86.3436,
        "meta_ra_of_asc_node": 13.1069,
        "meta_arg_of_pericenter": 133.704,
        "meta_mean_anomaly": 255.6027,
        "meta_ephemeris_type": 0,
        "meta_classification_type": "U",
        "meta_norad_cat_id": 34487,
        "meta_element_set_no": 999,
        "meta_rev_at_epoch": 88224,
        "meta_bstar": 0.00027235963,
        "meta_mean_motion_dot": 9.41e-06,
        "meta_mean_motion_ddot": 0,
        "tle_line1": "1 34487U 97051GC  25345.04510999  .00000941  00000+0  27236-3 0  9990",
        "tle_line2": "2 34487  86.3436  13.1069 0032647 133.7040 255.6027 14.43212791882243"
      },
      "geometry": {
        "type": "Point",
        "coordinates": [
          12.416887671786911,
          -6.607743143924405
        ]
      }
    },
    {
      "type": "Feature",
      "properties": {
        "norad_id": 34488,
        "name": "IRIDIUM 33 DEB",
        "group": "iridium-33-debris",
        "lat": -11.745068631997905,
        "lon": -54.418201280302966,
        "alt_km": 479.1265134541736,
        "timestamp": "2025-12-11T15:53:39.928478+00:00",
        "meta_object_name": "IRIDIUM 33 DEB",
        "meta_object_id": "1997-051GD",
        "meta_epoch": "2025-12-10T14:48:36.945792",
        "meta_mean_motion": 15.28578771,
        "meta_eccentricity": 0.0013801,
        "meta_inclination": 86.3253,
        "meta_ra_of_asc_node": 306.8644,
        "meta_arg_of_pericenter": 55.1759,
        "meta_mean_anomaly": 305.0785,
        "meta_ephemeris_type": 0,
        "meta_classification_type": "U",
        "meta_norad_cat_id": 34488,
        "meta_element_set_no": 999,
        "meta_rev_at_epoch": 89207,
        "meta_bstar": 0.0066252,
        "meta_mean_motion_dot": 0.00188937,
        "meta_mean_motion_ddot": 0,
        "tle_line1": "1 34488U 97051GD  25344.61709428  .00188937  00000+0  66252-2 0  9992",
        "tle_line2": "2 34488  86.3253 306.8644 0013801  55.1759 305.0785 15.28578771892077"
      },
      "geometry": {
        "type": "Point",
        "coordinates": [
          -54.418201280302966,
          -11.745068631997905
        ]
      }
    }
  ]
}